GLOBALSTAR M075         
1 37192U 10054E   25300.26679954 -.00000109  00000+0 -28942-4 0  9990
2 37192  51.9922 139.3837 0000926  87.3074  83.5254 12.62269292692524
GLOBALSTAR M073         
1 37193U 10054F   25300.02983868 -.00000106  00000+0 -14051-4 0  9990
2 37193  52.0073  54.0235 0000600 127.3671  44.9922 12.62263618694482
GLOBALSTAR M083         
1 37739U 11033A   25300.25807081 -.00000087  00000+0  96018-4 0  9991
2 37739  51.9884   1.8789 0000437 134.0608 297.6620 12.62263958663534
GLOBALSTAR M088         
1 37740U 11033B   25300.32779758 -.00000082  00000+0  11940-3 0  9995
2 37740  52.0211 267.5310 0000616  62.2189  85.1381 12.62269243659080
GLOBALSTAR M091         
1 37741U 11033C   25300.26358426 -.00000072  00000+0  17865-3 0  9995
2 37741  51.9992 231.0351 0000768  78.0697  77.7717 12.62261004659866
GLOBALSTAR M085         
1 37742U 11033D   25300.17384581 -.00000078  00000+0  14535-3 0  9994
2 37742  52.0114 182.3980 0000963  89.8586  78.0550 12.62266295660368
GLOBALSTAR M081         
1 37743U 11033E   25300.11908606 -.00000076  00000+0  15528-3 0  9990
2 37743  51.9946 185.2659 0000753  84.0827  74.7021 12.62269732660508
GLOBALSTAR M089         
1 37744U 11033F   25300.31953847 -.00000105  00000+0 -73053-5 0  9993
2 37744  51.9905 138.8576 0000818  72.7528  98.1970 12.62272146661372
